ORBCOMM-X [-]           
1 21576U 91050C   24053.16681788  .00000451  00000+0  14963-3 0  9990
2 21576  98.4035 122.2104 0003572 181.8382 178.2795 14.42374799712977
ORBCOMM FM01 [-]        
1 23545U 95017A   24052.78954724  .00006079  00000+0  83867-3 0  9996
2 23545  69.9680 183.3634 0007536 311.3834  48.6666 14.78618139541083
ORBCOMM FM02 [-]        
1 23546U 95017B   24053.13470383  .00005913  00000+0  82414-3 0  9994
2 23546  69.9689 201.7986 0009391 308.7259  51.3049 14.78187381541086
ORBCOMM FM08 [-]        
1 25112U 97084A   24052.56965969  .00002034  00000+0  65674-3 0  9996
2 25112  45.0139 152.8833 0007121 322.6646  37.3708 14.42044260371764
ORBCOMM FM10 [-]        
1 25113U 97084B   24052.57219558  .00002007  00000+0  64950-3 0  9990
2 25113  45.0151 154.6692 0005795 290.0358  69.9868 14.41971337546917
ORBCOMM FM11 [+]        
1 25114U 97084C   24052.58448238  .00002121  00000+0  68539-3 0  9995
2 25114  45.0136 154.6179 0006500 292.3592  67.6569 14.41858778371889
ORBCOMM FM12 [-]        
1 25115U 97084D   24052.54248236  .00001985  00000+0  64480-3 0  9996
2 25115  45.0143 154.4889 0005555 290.2687  69.7565 14.41832353371672
ORBCOMM FM09 [-]        
1 25116U 97084E   24052.62125462  .00001977  00000+0  64271-3 0  9990
2 25116  45.0145 154.7774 0006980 280.9874  79.0190 14.41798668371890
